SPACEBEE-5              
1 43817U 18099BM  22266.87281910  .00010514  00000+0  79289-3 0  9992
2 43817  97.6283 336.3212 0004805 274.6049  85.4628 15.02623326207540
SPACEBEE-6              
1 43818U 18099BN  22266.61772945  .00004861  00000+0  40083-3 0  9996
2 43818  97.6262 333.5947 0009930 288.4493  71.5650 14.99451844207542
SHIELDS 1               
1 43850U 18104B   22267.26768018  .00003836  00000+0  15568-3 0  9998
2 43850  85.0325 346.6294 0011647 259.2345 100.7587 15.24199060209554
STF-1                   
1 43852U 18104D   22266.73524391  .00010315  00000+0  37179-3 0  9997
2 43852  85.0347 346.9737 0010296 273.9466  86.0602 15.28352499209545
ZACUBE-2                
1 43907U 18111AH  22267.44145104  .00007222  00000+0  25682-3 0  9995
2 43907  97.1751 150.2349 0021385  87.2172  19.9506 15.29055804208419
LUME 1                  
1 43908U 18111AJ  22266.66930821  .00010097  00000+0  32705-3 0  9995
2 43908  97.1763 151.4151 0019868  83.8782 276.4723 15.32011693208423
AOBA VELOX-IV           
1 43940U 19003J   22267.07571046  .00034142  00000+0  79506-3 0  9995
2 43940  97.1185 300.2785 0017427 142.8828 217.3628 15.42043821205301
MOVE-IIB                
1 44398U 19038N   22267.20259882  .00012502  00000+0  56988-3 0  9992
2 44398  97.6373 237.6271 0021966 140.1079 220.1763 15.20579928178037
SONATE                  
1 44400U 19038Q   22266.86897380  .00004268  00000+0  22816-3 0  9991
2 44400  97.6494 235.9137 0023953 149.6742 210.5882 15.15393274177830
LUCKY-7                 
1 44406U 19038W   22266.86908514  .00006891  00000+0  35503-3 0  9990
2 44406  97.6483 236.5451 0023335 146.7479 213.5225 15.16478593177876
BEESAT 9                
1 44412U 19038AC  22266.89953969  .00008892  00000+0  43578-3 0  9998
2 44412  97.6455 237.0443 0020828 148.2708 211.9785 15.18191237177620
JAISAT-1                
1 44419U 19038F   22267.44759233  .00009538  00000+0  46095-3 0  9990
2 44419  97.6459 238.5125 0019976 143.5699 216.6898 15.18673715178076
DUCHIFAT-3              
1 44854U 19089C   22267.26923479  .00003702  00000+0  28549-3 0  9995
2 44854  36.9654 234.2817 0009097 300.7497  59.2351 15.01644000152792
EYESAT-NANO             
1 44877U 19092E   22267.04436298  .00012495  00000+0  51342-3 0  9994
2 44877  97.4643  90.8515 0011361  17.0514 343.1103 15.24269181153376
ORBITAL FACTORY 2 (OF-2)
1 45113U 19071C   22266.77532886  .00034369  00000+0  60110-3 0  9991
2 45113  51.6354 293.9622 0007053 161.5630 198.5616 15.50281921148609
M2 PATHFINDER           
1 45727U 20037E   22267.06442454  .00000885  00000+0  92099-4 0  9998
2 45727  97.7401  80.7776 0014129  68.0467 292.2133 14.92250553121538
NETSAT-4                
1 46504U 20068U   22266.79844349  .00002309  00000+0  17194-3 0  9999
2 46504  97.7293 206.4504 0012835   2.7014 357.4292 15.03880962108825
NETSAT-3                
1 46505U 20068V   22266.81668448  .00002776  00000+0  20600-3 0  9991
2 46505  97.7291 206.3738 0011990  12.3181 347.8333 15.03849404108831
NETSAT-1                
1 46506U 20068W   22266.83690543  .00003323  00000+0  24617-3 0  9996
2 46506  97.7282 206.3133 0009561  22.4823 337.6819 15.03787096108831
NETSAT-2                
1 46507U 20068X   22266.78113183  .00003961  00000+0  29272-3 0  9991
2 46507  97.7262 206.2476 0009285  26.7349 333.4354 15.03769655108774
SAI-1 NANOCONNECT-2     
1 47701U 21015C   22266.78409705  .00013259  00000+0  46906-3 0  9993
2 47701  97.4173 343.3243 0012119 105.7585 254.4992 15.29214763 87234
WILDTRACKCUBE-SIMBA     
1 47941U 21022K   22267.49696950  .00003145  00000+0  20861-3 0  9991
2 47941  97.5180 164.8826 0020921 163.2094   8.7680 15.07802969 82917
BEESAT-6                
1 47957U 21022AB  22266.54371735  .00006420  00000+0  40068-3 0  9994
2 47957  97.5165 164.2425 0020506 165.8085 316.8697 15.09665778 82595
SMOG-1                  
1 47964U 21022AJ  22267.47276620  .00008918  00000+0  53323-3 0  9994
2 47964  97.5186 166.4211 0018772 150.7370 209.4916 15.11143005 81839
MMSATS-1                
1 47976U 98067SJ  22267.25085118  .00029031  00000+0  31154-3 0  9993
2 47976  51.6385 187.2391 0002048  73.5465  58.1454 15.63546195 85698
BCCSAT-1                
1 48041U 21022AK  22267.38372979  .00006751  00000+0  41590-3 0  9991
2 48041  97.5194 165.8288 0015681 148.0371 212.1813 15.10196026 81768
BEESAT-5                
1 48083U 21022AM  22266.71263603  .00007463  00000+0  46187-3 0  9994
2 48083  97.5095 164.4229 0020638 164.9754 256.6826 15.09918733 81755
BEESAT-7                
1 48084U 21022AN  22267.26484089  .00007004  00000+0  43545-3 0  9995
2 48084  97.5143 164.9646 0020028 162.4939 325.6272 15.09781935 81427
BEESAT-8                
1 48085U 21022AP  22266.54181978  .00005724  00000+0  35849-3 0  9992
2 48085  97.5147 164.2416 0020105 166.1328 317.1524 15.09593592 81874
RAMSAT                  
1 48850U 98067SL  22266.99594657  .00373063  65866-4  96610-3 0  9999
2 48850  51.6320 167.6337 0004750 168.9885 191.1227 15.94535283 72904
LEDSAT                  
1 49069U 21073D   22267.38559158  .00003670  00000+0  23245-3 0  9998
2 49069  97.5173 338.3173 0025461 318.0007  41.9269 15.09321763 60753
BINAR-1                 
1 49272U 98067SR  22266.98638667  .00926721  47608-3  11504-2 0  9993
2 49272  51.6217 169.6865 0006067 208.8249 151.2429 16.07185565 55267
HSU-SAT1                
1 53462U 98067UB  22267.09370785  .00043309  00000+0  67258-3 0  9997
2 53462  51.6401 205.9510 0004985 289.6638  70.3815 15.53509924  6642
FUTABA                  
1 53463U 98067UC  22266.82975443  .00049023  00000+0  74649-3 0  9991
2 53463  51.6394 207.1886 0004758 287.3672  72.6798 15.53998433  6603
TUMNANOSAT              
1 53464U 98067UD  22266.82326857  .00057391  00000+0  85630-3 0  9990
2 53464  51.6391 207.1455 0004594 287.0319  73.0168 15.54490400  6604
